{
  "type": "FeatureCollection",
  "features": [
    {
      "type": "Feature",
      "properties": {
        "norad_id": 66549,
        "name": "SHIJIAN-28 (SJ-28)",
        "group": "last-30-days",
        "lat": -3.745427218998044,
        "lon": 143.57005555474973,
        "alt_km": 35789.70319906306,
        "timestamp": "2025-12-27T19:21:57.541702+00:00",
        "meta_object_name": "SHIJIAN-28 (SJ-28)",
        "meta_object_id": "2025-277A",
        "meta_epoch": "2025-12-25T13:29:07.948320",
        "meta_mean_motion": 1.0026485,
        "meta_eccentricity": 9.97e-05,
        "meta_inclination": 4.9871,
        "meta_ra_of_asc_node": 274.7549,
        "meta_arg_of_pericenter": 127.1328,
        "meta_mean_anomaly": 11.4336,
        "meta_ephemeris_type": 0,
        "meta_classification_type": "U",
        "meta_norad_cat_id": 66549,
        "meta_element_set_no": 999,
        "meta_rev_at_epoch": 41,
        "meta_bstar": 0,
        "meta_mean_motion_dot": -3.37e-06,
        "meta_mean_motion_ddot": 0,
        "tle_line1": "1 66549U 25277A   25359.56189755 -.00000337  00000+0  00000+0 0  9995",
        "tle_line2": "2 66549   4.9871 274.7549 0000997 127.1328  11.4336  1.00264850   417"
      },
      "geometry": {
        "type": "Point",
        "coordinates": [
          143.57005555474973,
          -3.745427218998044
        ]
      }
    },
    {
      "type": "Feature",
      "properties": {
        "norad_id": 66550,
        "name": "CZ-7A R/B",
        "group": "last-30-days",
        "lat": -2.998493621180854,
        "lon": -111.12073842801752,
        "alt_km": 14577.527547019774,
        "timestamp": "2025-12-27T19:21:57.541757+00:00",
        "meta_object_name": "CZ-7A R/B",
        "meta_object_id": "2025-277B",
        "meta_epoch": "2025-12-26T04:09:27.198144",
        "meta_mean_motion": 3.54037207,
        "meta_eccentricity": 0.6428177,
        "meta_inclination": 14.3386,
        "meta_ra_of_asc_node": 261.883,
        "meta_arg_of_pericenter": 204.1589,
        "meta_mean_anomaly": 102.8537,
        "meta_ephemeris_type": 0,
        "meta_classification_type": "U",
        "meta_norad_cat_id": 66550,
        "meta_element_set_no": 999,
        "meta_rev_at_epoch": 76,
        "meta_bstar": 0.003172,
        "meta_mean_motion_dot": 0.04976202,
        "meta_mean_motion_ddot": -2.1169e-07,
        "tle_line1": "1 66550U 25277B   25360.17323146  .04976202 -21169-6  31720-2 0  9999",
        "tle_line2": "2 66550  14.3386 261.8830 6428177 204.1589 102.8537  3.54037207   761"
      },
      "geometry": {
        "type": "Point",
        "coordinates": [
          -111.12073842801752,
          -2.998493621180854
        ]
      }
    },
    {
      "type": "Feature",
      "properties": {
        "norad_id": 66554,
        "name": "GLOBAL-33",
        "group": "last-30-days",
        "lat": 41.710826681306976,
        "lon": 51.832256579330426,
        "alt_km": 464.91160056383796,
        "timestamp": "2025-12-27T19:21:57.541795+00:00",
        "meta_object_name": "GLOBAL-33",
        "meta_object_id": "2025-267A",
        "meta_epoch": "2025-12-27T04:55:04.681920",
        "meta_mean_motion": 15.31821083,
        "meta_eccentricity": 0.00051492,
        "meta_inclination": 42.0213,
        "meta_ra_of_asc_node": 333.4792,
        "meta_arg_of_pericenter": 191.8206,
        "meta_mean_anomaly": 168.2511,
        "meta_ephemeris_type": 0,
        "meta_classification_type": "U",
        "meta_norad_cat_id": 66554,
        "meta_element_set_no": 999,
        "meta_rev_at_epoch": 562,
        "meta_bstar": 0.0005153059,
        "meta_mean_motion_dot": 0.00015963,
        "meta_mean_motion_ddot": 0,
        "tle_line1": "1 66554U 25267A   25361.20491530  .00015963  00000+0  51531-3 0  9990",
        "tle_line2": "2 66554  42.0213 333.4792 0005149 191.8206 168.2511 15.31821083  5626"
      },
      "geometry": {
        "type": "Point",
        "coordinates": [
          51.832256579330426,
          41.710826681306976
        ]
      }
    },
    {
      "type": "Feature",
      "properties": {
        "norad_id": 66557,
        "name": "STARLINK-35699",
        "group": "last-30-days",
        "lat": -42.65360905432075,
        "lon": -47.87484498876597,
        "alt_km": 483.02606485782053,
        "timestamp": "2025-12-27T19:21:57.541807+00:00",
        "meta_object_name": "STARLINK-35699",
        "meta_object_id": "2025-268A",
        "meta_epoch": "2025-12-27T12:00:02.000160",
        "meta_mean_motion": 15.30498538,
        "meta_eccentricity": 0.0001716,
        "meta_inclination": 43.0023,
        "meta_ra_of_asc_node": 35.1892,
        "meta_arg_of_pericenter": 274.7552,
        "meta_mean_anomaly": 109.9346,
        "meta_ephemeris_type": 0,
        "meta_classification_type": "U",
        "meta_norad_cat_id": 66557,
        "meta_element_set_no": 999,
        "meta_rev_at_epoch": 598,
        "meta_bstar": -0.12234,
        "meta_mean_motion_dot": -0.03268656,
        "meta_mean_motion_ddot": 0,
        "tle_line1": "1 66557U 25268A   25361.50002315 -.03268656  00000+0 -12234+0 0  9993",
        "tle_line2": "2 66557  43.0023  35.1892 0001716 274.7552 109.9346 15.30498538  5988"
      },
      "geometry": {
        "type": "Point",
        "coordinates": [
          -47.87484498876597,
          -42.65360905432075
        ]
      }
    },
    {
      "type": "Feature",
      "properties": {
        "norad_id": 66558,
        "name": "STARLINK-35695",
        "group": "last-30-days",
        "lat": -37.56286045686468,
        "lon": -22.216748036381265,
        "alt_km": 480.24392311057636,
        "timestamp": "2025-12-27T19:21:57.541819+00:00",
        "meta_object_name": "STARLINK-35695",
        "meta_object_id": "2025-268B",
        "meta_epoch": "2025-12-27T12:00:02.000160",
        "meta_mean_motion": 15.30869315,
        "meta_eccentricity": 0.0001312,
        "meta_inclination": 43.0002,
        "meta_ra_of_asc_node": 35.1429,
        "meta_arg_of_pericenter": 314.5707,
        "meta_mean_anomaly": 89.6233,
        "meta_ephemeris_type": 0,
        "meta_classification_type": "U",
        "meta_norad_cat_id": 66558,
        "meta_element_set_no": 999,
        "meta_rev_at_epoch": 599,
        "meta_bstar": -0.086138,
        "meta_mean_motion_dot": -0.02331788,
        "meta_mean_motion_ddot": 0,
        "tle_line1": "1 66558U 25268B   25361.50002315 -.02331788  00000+0 -86138-1 0  9996",
        "tle_line2": "2 66558  43.0002  35.1429 0001312 314.5707  89.6233 15.30869315  5994"
      },
      "geometry": {
        "type": "Point",
        "coordinates": [
          -22.216748036381265,
          -37.56286045686468
        ]
      }
    },
    {
      "type": "Feature",
      "properties": {
        "norad_id": 66559,
        "name": "STARLINK-35419",
        "group": "last-30-days",
        "lat": 25.544701124410736,
        "lon": 64.00908635379147,
        "alt_km": 458.73299712632706,
        "timestamp": "2025-12-27T19:21:57.541830+00:00",
        "meta_object_name": "STARLINK-35419",
        "meta_object_id": "2025-268C",
        "meta_epoch": "2025-12-27T12:00:02.000160",
        "meta_mean_motion": 15.35778587,
        "meta_eccentricity": 0.0001232,
        "meta_inclination": 43.0011,
        "meta_ra_of_asc_node": 34.9083,
        "meta_arg_of_pericenter": 297.2301,
        "meta_mean_anomaly": 204.0232,
        "meta_ephemeris_type": 0,
        "meta_classification_type": "U",
        "meta_norad_cat_id": 66559,
        "meta_element_set_no": 999,
        "meta_rev_at_epoch": 599,
        "meta_bstar": -0.061364,
        "meta_mean_motion_dot": -0.01947166,
        "meta_mean_motion_ddot": 0,
        "tle_line1": "1 66559U 25268C   25361.50002315 -.01947166  00000+0 -61364-1 0  9993",
        "tle_line2": "2 66559  43.0011  34.9083 0001232 297.2301 204.0232 15.35778587  5993"
      },
      "geometry": {
        "type": "Point",
        "coordinates": [
          64.00908635379147,
          25.544701124410736
        ]
      }
    },
    {
      "type": "Feature",
      "properties": {
        "norad_id": 66560,
        "name": "STARLINK-35411",
        "group": "last-30-days",
        "lat": 31.67522433332443,
        "lon": 74.5877650114157,
        "alt_km": 456.3905738133617,
        "timestamp": "2025-12-27T19:21:57.541840+00:00",
        "meta_object_name": "STARLINK-35411",
        "meta_object_id": "2025-268D",
        "meta_epoch": "2025-12-27T12:00:02.000160",
        "meta_mean_motion": 15.36327494,
        "meta_eccentricity": 0.0001178,
        "meta_inclination": 43.0001,
        "meta_ra_of_asc_node": 34.8804,
        "meta_arg_of_pericenter": 297.3468,
        "meta_mean_anomaly": 214.4493,
        "meta_ephemeris_type": 0,
        "meta_classification_type": "U",
        "meta_norad_cat_id": 66560,
        "meta_element_set_no": 999,
        "meta_rev_at_epoch": 599,
        "meta_bstar": -0.062108,
        "meta_mean_motion_dot": -0.01999679,
        "meta_mean_motion_ddot": 0,
        "tle_line1": "1 66560U 25268D   25361.50002315 -.01999679  00000+0 -62108-1 0  9998",
        "tle_line2": "2 66560  43.0001  34.8804 0001178 297.3468 214.4493 15.36327494  5990"
      },
      "geometry": {
        "type": "Point",
        "coordinates": [
          74.5877650114157,
          31.67522433332443
        ]
      }
    }
  ]
}